{
  "norad_id": 64081,
  "name": "STARLINK-34180",
  "history": [
    {
      "epoch": "2026-03-28T17:53:11.443776",
      "apogee_km": 484.259365830555,
      "perigee_km": 481.92147119997117,
      "latitude_deg": 3.457223686336903,
      "longitude_deg": -60.35395136009902,
      "semi_major_axis_km": 6861.227418515263,
      "eccentricity": 0.00017037,
      "inclination_deg": 43.0046,
      "raan_deg": 94.0281,
      "arg_perigee_deg": 265.8998,
      "mean_anomaly_deg": 94.1659,
      "mean_motion_rev_day": 15.275662
    }
  ]
}