{"fetched_at":"2026-03-29T16:36:15Z","count":15609,"tles":[{"name":"STARLINK-34180","line1":"1 64081U 25107T   26087.74527134  .00023453  00000+0  85942-3 0  9997","line2":"2 64081  43.0046  94.0281 0001703 265.8998  94.1659 15.27566200 49034","category":"Starlink"}]}